
# Worst residual: 4.17 km
# MJD 59197.000000 (2020 Dec 14  0:00)
C1NHY61 = A10hwSu = prob. Vela
1 89962U 00000ABL 20349.49919926  .00000000  00000-0  00000-0 0 11781
2 89962 043.0177 217.8825 5270160 066.4832 254.1077 00.21374556    00

# Worst residual: 26.53 km
# MJD 59198.000000 (2020 Dec 15  0:00)
C1NHY61 = A10hwSu = prob. Vela
1 89962U 00000ABL 20350.49919926  .00000000  00000-0  00000-0 0 11783
2 89962 043.0319 217.7967 5272364 066.5744 331.0987 00.21410174    07

# Worst residual: 18.83 km
# MJD 59199.000000 (2020 Dec 16  0:00)
C1NHY61 = A10hwSu = prob. Vela
1 89962U 00000ABL 20351.49919926  .00000000  00000-0  00000-0 0 11784
2 89962 043.0344 217.8289 5270894 066.3260 048.3849 00.21450909    05

# Worst residual: 9.58 km
# MJD 59200.000000 (2020 Dec 17  0:00)
C1NHY61 = A10hwSu = prob. Vela
1 89962U 00000ABL 20352.49919926  .00000000  00000-0  00000-0 0 11785
2 89962 042.9893 217.7676 5278624 066.4763 125.2076 00.21388195    03

# Worst residual: 4.74 km
# MJD 59201.000000 (2020 Dec 18  0:00)
C1NHY61 = A10hwSu = prob. Vela
1 89962U 00000ABL 20353.49919926  .00000000  00000-0  00000-0 0 11786
2 89962 042.9657 217.6931 5276822 066.5549 202.0712 00.21373900    04

# Worst residual: 6.60 km
# MJD 59202.000000 (2020 Dec 19  0:00)
C1NHY61 = A10hwSu = prob. Vela
1 89962U 00000ABL 20354.49919926  .00000000  00000-0  00000-0 0 11787
2 89962 042.9554 217.6273 5277081 066.6174 278.9560 00.21388336    04

# Worst residual: 26.92 km
# MJD 59203.000000 (2020 Dec 20  0:00)
C1NHY61 = A10hwSu = prob. Vela
1 89962U 00000ABL 20355.49919926  .00000000  00000-0  00000-0 0 11788
2 89962 042.9679 217.5770 5266116 066.5869 355.9770 00.21436946    00

# Worst residual: 10.80 km
# MJD 59204.000000 (2020 Dec 21  0:00)
C1NHY61 = A10hwSu = prob. Vela
1 89962U 00000ABL 20356.49919926  .00000000  00000-0  00000-0 0 11789
2 89962 042.9501 217.5663 5278458 066.4781 073.0720 00.21394669    07

# Worst residual: 4.93 km
# MJD 59205.000000 (2020 Dec 22  0:00)
C1NHY61 = A10hwSu = prob. Vela
1 89962U 00000ABL 20357.49919926  .00000000  00000-0  00000-0 0 11780
2 89962 042.9399 217.5257 5276937 066.4935 150.1057 00.21378611    01

# Worst residual: 7.19 km
# MJD 59206.000000 (2020 Dec 23  0:00)
C1NHY61 = A10hwSu = prob. Vela
1 89962U 00000ABL 20358.49919926  .00000000  00000-0  00000-0 0 11781
2 89962 042.9297 217.4852 5271073 066.4009 227.3077 00.21361001    00

# Worst residual: 6.17 km
# MJD 59207.000000 (2020 Dec 24  0:00)
C1NHY61 = A10hwSu = prob. Vela
1 89962U 00000ABL 20359.49919926  .00000000  00000-0  00000-0 0 11782
2 89962 042.9203 217.4516 5272531 066.3170 304.3821 00.21345277    02

# Worst residual: 18.46 km
# MJD 59208.000000 (2020 Dec 25  0:00)
C1NHY61 = A10hwSu = prob. Vela
1 89962U 00000ABL 20360.49919926  .00000000  00000-0  00000-0 0 11784
2 89962 042.9301 217.4303 5263599 066.3127 021.3846 00.21429459    09

# Worst residual: 11.79 km
# MJD 59209.000000 (2020 Dec 26  0:00)
C1NHY61 = A10hwSu = prob. Vela
1 89962U 00000ABL 20361.49919926  .00000000  00000-0  00000-0 0 11785
2 89962 042.8850 217.3890 5278667 066.3105 098.3061 00.21382227    09

# Worst residual: 4.84 km
# MJD 59210.000000 (2020 Dec 27  0:00)
C1NHY61 = A10hwSu = prob. Vela
1 89962U 00000ABL 20362.49919926  .00000000  00000-0  00000-0 0 11786
2 89962 042.8609 217.3301 5281805 066.3043 175.3385 00.21380002    01

# Worst residual: 4.89 km
# MJD 59211.000000 (2020 Dec 28  0:00)
C1NHY61 = A10hwSu = prob. Vela
1 89962U 00000ABL 20363.49919926  .00000000  00000-0  00000-0 0 11787
2 89962 042.8560 217.3226 5281947 066.1934 252.5366 00.21369721    09

# Worst residual: 21.21 km
# MJD 59212.000000 (2020 Dec 29  0:00)
C1NHY61 = A10hwSu = prob. Vela
1 89962U 00000ABL 20364.49919926  .00000000  00000-0  00000-0 0 11788
2 89962 042.8599 217.2708 5283509 066.1870 329.5575 00.21376816    00

# Worst residual: 15.59 km
# MJD 59213.000000 (2020 Dec 30  0:00)
C1NHY61 = A10hwSu = prob. Vela
1 89962U 00000ABL 20365.49919926  .00000000  00000-0  00000-0 0 11789
2 89962 042.8670 217.3022 5279517 065.9697 046.7593 00.21436643    01

# Worst residual: 4.47 km
# MJD 59214.000000 (2020 Dec 31  0:00)
C1NHY61 = A10hwSu = prob. Vela
1 89962U 00000ABL 20366.49919926  .00000000  00000-0  00000-0 0 11780
2 89962 042.8426 217.2590 5285347 066.0381 123.7228 00.21397345    05
